[{"OBJECT_NAME":"ONEWEB-0661","OBJECT_ID":"2023-029AB","EPOCH":"2026-03-09T16:12:51.430464","MEAN_MOTION":13.14502994,"ECCENTRICITY":0.00013961,"INCLINATION":87.8978,"RA_OF_ASC_NODE":309.6081,"ARG_OF_PERICENTER":90.1887,"MEAN_ANOMALY":269.9403,"EPHEMERIS_TYPE":0,"CLASSIFICATION_TYPE":"U","NORAD_CAT_ID":55821,"ELEMENT_SET_NO":999,"REV_AT_EPOCH":14631,"BSTAR":-7.5684834e-5,"MEAN_MOTION_DOT":-1.5e-7,"MEAN_MOTION_DDOT":0},{"OBJECT_NAME":"SL-8 R\/B","OBJECT_ID":"1968-106B","EPOCH":"2026-03-09T16:20:09.900096","MEAN_MOTION":13.19131001,"ECCENTRICITY":0.00341644,"INCLINATION":74.0517,"RA_OF_ASC_NODE":137.3134,"ARG_OF_PERICENTER":143.4036,"MEAN_ANOMALY":333.6648,"EPHEMERIS_TYPE":0,"CLASSIFICATION_TYPE":"U","NORAD_CAT_ID":3577,"ELEMENT_SET_NO":999,"REV_AT_EPOCH":75627,"BSTAR":6.8339382e-5,"MEAN_MOTION_DOT":8.0e-8,"MEAN_MOTION_DDOT":0}]
